OBJECT_NAME,OBJECT_ID,EPOCH,MEAN_MOTION,ECCENTRICITY,INCLINATION,RA_OF_ASC_NODE,ARG_OF_PERICENTER,MEAN_ANOMALY,EPHEMERIS_TYPE,CLASSIFICATION_TYPE,NORAD_CAT_ID,ELEMENT_SET_NO,REV_AT_EPOCH,BSTAR,MEAN_MOTION_DOT,MEAN_MOTION_DDOT
CUBEBUG-2 (LO-74),2013-066AA,2026-06-28T20:27:23.802048,14.93854325,.00571723,97.8906,128.8804,350.4487,9.5641,0,U,39440,999,67873,.37581109E-3,.4059E-4,0
FUNCUBE-1 (AO-73),2013-066AE,2026-06-28T22:07:29.307072,15.09627566,.00368849,97.8277,151.6136,160.9318,199.3301,0,U,39444,999,68143,.39162951E-3,.6331E-4,0
UWE-3,2013-066AG,2026-06-28T20:17:33.724608,14.97114508,.00468892,97.8711,135.9993,281.4584,78.1373,0,U,39446,999,67932,.258706E-3,.2989E-4,0
UNISAT-6,2014-033C,2026-06-28T21:34:42.114720,14.88300995,.00455325,97.7887,332.4054,31.5572,328.8361,0,U,40012,999,64790,.28673146E-3,.2645E-4,0
DUCHIFAT-1,2014-033M,2026-06-28T23:20:46.849344,15.67092926,.00006459,98.0456,240.8096,103.8669,256.2662,0,U,40021,999,65759,.10874878E-2,.117244E-2,0
QB50P1,2014-033R,2026-06-28T22:43:12.164448,15.18434109,.00090549,98.0958,191.9181,174.0435,186.0906,0,U,40025,999,65481,.35692126E-3,.728E-4,0
LILACSAT-2,2015-049K,2026-06-28T22:40:58.284192,15.51826866,.00066822,97.4632,217.2352,194.3397,165.7667,0,U,40908,999,59757,.29004504E-3,.1727E-3,0
FOX-1A (AO-85),2015-058D,2026-06-28T16:30:43.685568,14.91015719,.01311551,64.7745,243.2418,52.1162,309.1726,0,U,40967,999,11528,.17487412E-3,.1863E-4,0
CAS-2T & KS-1Q,2016-066G,2026-06-28T22:41:26.408256,14.44731270,.03428741,98.3820,255.5473,93.9278,270.1178,0,U,41847,999,50649,.22585495E-3,.1566E-4,0
RADFXSAT (FOX-1B),2017-073E,2026-06-28T14:02:06.239616,15.12867010,.01485354,97.4690,46.5670,289.4918,69.0319,0,U,43017,999,46711,.29239469E-3,.6671E-4,0
DIWATA-2B,2018-084H,2026-06-28T23:21:43.884576,15.00503499,.00130687,98.1201,16.6963,133.3760,226.8553,0,U,43678,999,41798,.19854009E-3,.244E-4,0
ES'HAIL 2,2018-090A,2026-06-28T21:08:09.291840,1.00270798,.0002242,0.0274,25.1742,106.9406,127.6792,0,U,43700,999,2779,0,0,0
FOX-1CLIFF (AO-95),2018-099N,2026-06-28T14:41:44.354688,15.26945463,.00070548,97.4385,239.8174,311.8599,48.2037,0,U,43770,999,41496,.38163646E-3,.10033E-3,0
ITASAT,2018-099AE,2026-06-28T16:20:02.671008,15.19194925,.00110557,97.4026,230.9633,317.1813,42.8560,0,U,43786,999,41465,.30212886E-3,.63E-4,0
JY1SAT (JO-97),2018-099AX,2026-06-28T15:26:00.465216,15.34009895,.0005256,97.4130,242.5189,213.1026,146.9889,0,U,43803,999,41538,.48154504E-3,.15787E-3,0
UWE-4,2018-111E,2026-06-28T17:35:13.747200,15.46830236,.00042855,97.5851,108.6609,279.6712,80.4053,0,U,43880,999,41256,.62174864E-3,.31201E-3,0
TIANYAN 01,2019-093C,2026-06-28T23:00:58.775040,14.86538223,.00148222,97.7533,251.9039,52.2139,308.0417,0,U,44881,999,35316,.13782832E-3,.1169E-4,0
RS-44 & BREEZE-KM R/B,2019-096E,2026-06-28T21:19:45.792480,12.79749007,.0218507,82.5228,331.9284,116.9240,245.4369,0,U,44909,999,30384,-.12934048E-4,.1E-6,0
SALSAT,2020-068K,2026-06-28T23:37:04.859328,15.29961615,.00078707,97.8845,183.7681,257.4321,102.6038,0,U,46495,999,31716,.23731316E-3,.6804E-4,0
XW-3 (CAS-9),2021-131B,2026-06-28T23:52:19.609824,14.41367285,.00053171,98.4989,272.3204,69.4418,290.7341,0,U,50466,999,23681,.12757102E-3,.369E-5,0
GREENCUBE (IO-117),2022-080E,2026-06-28T16:50:00.384576,6.42583249,.00089876,70.1440,294.2410,287.1341,72.8335,0,U,53109,999,9280,0,-.3E-7,0
UMKA 1 (RS40S),2023-091G,2026-06-28T22:28:54.151104,15.20950058,.00142174,97.5049,238.5890,81.3709,278.9137,0,U,57172,999,16579,.25199014E-3,.5524E-4,0
CUBESX-HSE 3 (RS42S),2023-091N,2026-06-28T22:27:28.652256,15.31504646,.00113225,97.5093,245.6727,57.8111,302.4227,0,U,57178,999,16622,.42607313E-3,.12916E-3,0
MONITOR-3 (RS58S),2023-091Q,2026-06-28T22:06:03.230208,15.28072811,.00125816,97.5083,243.4539,64.2062,296.0474,0,U,57180,999,16608,.37531956E-3,.10226E-3,0
MONITOR-4 (RS57S),2023-091S,2026-06-28T23:09:14.958144,15.28158498,.00125751,97.5077,243.4699,64.2860,295.9677,0,U,57182,999,16609,.36194787E-3,.9884E-4,0
MONITOR-2 (RS39S),2023-091U,2026-06-28T21:46:00.532704,15.19016290,.00126363,97.5071,238.1142,75.5966,284.6670,0,U,57184,999,16573,.24197886E-3,.5007E-4,0
SVYATOBOR 1 (RS60S),2023-091X,2026-06-28T22:08:28.414176,15.26808950,.00103229,97.5090,243.8052,58.8143,301.4107,0,U,57187,999,16610,.33051431E-3,.8648E-4,0
VIZARD-METEO (RS38S),2023-091Z,2026-06-28T22:30:07.344000,15.36392175,.00072995,97.5094,249.6601,40.7503,319.4286,0,U,57189,999,16649,.46469237E-3,.1644E-3,0
POLYTECH-UNIVERSE 3 (RS46S),2023-091AB,2026-06-28T22:22:55.130592,15.19222802,.0017031,97.5046,237.6439,89.7400,270.5786,0,U,57191,999,16573,.23078629E-3,.4809E-4,0
UTMN 2 (RS27S),2023-091AP,2026-06-28T22:43:36.583680,15.32331647,.00084455,97.5090,247.3322,47.6760,312.5195,0,U,57203,999,16634,.39969246E-3,.12417E-3,0
