CUBEBUG-2 (LO-74)
1 39440U 13066AA  26179.85235882  .00004059  00000-0  37581-3 0  9997
2 39440  97.8906 128.8804 0057172 350.4487   9.5641 14.93854325678735
FUNCUBE-1 (AO-73)
1 39444U 13066AE  26179.92186698  .00006331  00000-0  39163-3 0  9992
2 39444  97.8277 151.6136 0036885 160.9318 199.3301 15.09627566681432
UWE-3
1 39446U 13066AG  26179.84552922  .00002989  00000-0  25871-3 0  9998
2 39446  97.8711 135.9993 0046889 281.4584  78.1373 14.97114508679323
UNISAT-6
1 40012U 14033C   26179.89909855  .00002645  00000-0  28673-3 0  9992
2 40012  97.7887 332.4054 0045533  31.5572 328.8361 14.88300995647903
DUCHIFAT-1
1 40021U 14033M   26179.97276446  .00117244  00000-0  10875-2 0  9990
2 40021  98.0456 240.8096 0000646 103.8669 256.2662 15.67092926657597
LILACSAT-2
1 40908U 15049K   26179.94511903  .00017270  00000-0  29005-3 0  9993
2 40908  97.4632 217.2352 0006682 194.3397 165.7667 15.51826866597573
CAS-2T & KS-1Q
1 41847U 16066G   26179.94544454  .00001566  00000-0  22585-3 0  9990
2 41847  98.3820 255.5473 0342874  93.9278 270.1178 14.44731270506496
FOX-1B (AO-91)
1 43017U 17073E   26179.58479444  .00006671  00000-0  29239-3 0  9991
2 43017  97.4690  46.5670 0148535 289.4918  69.0319 15.12867010467115
FUNCUBE-3 (EO-79)/QB50P1
1 40025U 14033R   26179.94666857  .00007280  00000-0  35692-3 0  9993
2 40025  98.0958 191.9181 0009055 174.0435 186.0906 15.18434109654815
FOX-1A (AO-85)
1 40967U 15058D   26179.68800562  .00001863  00000-0  17487-3 0  9993
2 40967  64.7745 243.2418 0131155  52.1162 309.1726 14.91015719115281
DIWATA-2B (PO-101)
1 43678U 18084H   26179.97342459  .00002440  00000-0  19854-3 0  9997
2 43678  98.1201  16.6963 0013069 133.3760 226.8553 15.00503499417980
ESHAIL-2
1 43700U 18090A   26179.88066310  .00000000  00000-0  00000-0 0  9999
2 43700   0.0274  25.1742 0002242 106.9406 127.6792  1.00270798 27799
ITASAT-1
1 43786U 18099AE  26179.68058647  .00006300  00000-0  30213-3 0  9995
2 43786  97.4026 230.9633 0011056 317.1813  42.8560 15.19194925414652
FOX-1CLIFF (AO-95)
1 43770U 18099N   26179.61231892  .00010033  00000-0  38164-3 0  9997
2 43770  97.4385 239.8174 0007055 311.8599  48.2037 15.26945463414969
JY1SAT (JO-97)
1 43803U 18099AX  26179.64306094  .00015787  00000-0  48155-3 0  9996
2 43803  97.4130 242.5189 0005256 213.1026 146.9889 15.34009895415388
UWE-4
1 43880U 18111E   26179.73279800  .00031201  00000-0  62175-3 0  9997
2 43880  97.5851 108.6609 0004286 279.6712  80.4053 15.46830236412560
CAS-6 (TO-108)
1 44881U 19093C   26179.95901360  .00001169  00000-0  13783-3 0  9997
2 44881  97.7533 251.9039 0014822  52.2139 308.0417 14.86538223353162
DOSAAF-85 (RS-44)
1 44909U 19096E   26179.88872445  .00000010  00000-0 -12934-4 0  9997
2 44909  82.5228 331.9284 0218507 116.9240 245.4369 12.79749007303848
SALSAT (TUBSAT 22)
1 46495U 20068K   26179.98408402  .00006804  00000-0  23731-3 0  9991
2 46495  97.8845 183.7681 0007871 257.4321 102.6038 15.29961615317165
CAMSAT XW-3 (CAS-9)
1 50466U 21131B   26179.99467141  .00000369  00000-0  12757-3 0  9998
2 50466  98.4989 272.3204 0005317  69.4418 290.7341 14.41367285236815
ROBUSTA 1F (MTCUBE-2)
1 53109U 22080E   26179.70139334 -.00000003  00000-0  00000-0 0  9999
2 53109  70.1440 294.2410 0008988 287.1341  72.8335  6.42583249 92807
UMKA-1 (RS40S)
1 57172U 23091G   26179.93673786  .00005524  00000-0  25199-3 0  9996
2 57172  97.5049 238.5890 0014217  81.3709 278.9137 15.20950058165796
CUBESX-HSE-3 (RS42S)
1 57178U 23091N   26179.93574829  .00012916  00000-0  42607-3 0  9996
2 57178  97.5093 245.6727 0011322  57.8111 302.4227 15.31504646166220
MONITOR-3 (RS58S)
1 57180U 23091Q   26179.92087072  .00010226  00000-0  37532-3 0  9990
2 57180  97.5083 243.4539 0012582  64.2062 296.0474 15.28072811166081
MONITOR-4 (RS57S)
1 57182U 23091S   26179.96475646  .00009884  00000-0  36195-3 0  9996
2 57182  97.5077 243.4699 0012575  64.2860 295.9677 15.28158498166091
MONITOR-2 (RS39S)
1 57184U 23091U   26179.90695061  .00005007  00000-0  24198-3 0  9990
2 57184  97.5071 238.1142 0012636  75.5966 284.6670 15.19016290165732
SVYATOBOR-1 (RS60S)
1 57187U 23091X   26179.92255109  .00008648  00000-0  33051-3 0  9992
2 57187  97.5090 243.8052 0010323  58.8143 301.4107 15.26808950166106
VIZARD-METEO (RS38S)
1 57189U 23091Z   26179.93758500  .00016440  00000-0  46469-3 0  9994
2 57189  97.5094 249.6601 0007300  40.7503 319.4286 15.36392175166494
UTMN-2 (RS27S)
1 57203U 23091AP  26179.94695120  .00012417  00000-0  39969-3 0  9997
2 57203  97.5090 247.3322 0008445  47.6760 312.5195 15.32331647166344
POLYTECH UNIVERSE-3 (RS46S)
1 57191U 23091AB  26179.93258253  .00004809  00000-0  23079-3 0  9995
2 57191  97.5046 237.6439 0017031  89.7400 270.5786 15.19222802165739
